FENGYUN 1C DEB          
1 30867U 99025AXD 17345.29003356  .00000698  00000-0  42535-3 0  9992
2 30867  97.8612 203.2781 0061413 240.9466 169.5336 14.07882410552974
